{
  "type": "FeatureCollection",
  "features": [
    {
      "type": "Feature",
      "properties": {
        "norad_id": 58647,
        "name": "TIANMU-1 13",
        "group": "weather",
        "lat": 75.80591973701627,
        "lon": -12.037183746580567,
        "alt_km": 487.80770132419093,
        "timestamp": "2025-12-25T07:00:33.686607+00:00",
        "meta_object_name": "TIANMU-1 13",
        "meta_object_id": "2023-205C",
        "meta_epoch": "2025-12-25T00:22:06.111264",
        "meta_mean_motion": 15.24674115,
        "meta_eccentricity": 0.00066505,
        "meta_inclination": 97.3613,
        "meta_ra_of_asc_node": 18.4304,
        "meta_arg_of_pericenter": 213.626,
        "meta_mean_anomaly": 146.4557,
        "meta_ephemeris_type": 0,
        "meta_classification_type": "U",
        "meta_norad_cat_id": 58647,
        "meta_element_set_no": 999,
        "meta_rev_at_epoch": 11094,
        "meta_bstar": 0.00028852855,
        "meta_mean_motion_dot": 7.064e-05,
        "meta_mean_motion_ddot": 0,
        "tle_line1": "1 58647U 23205C   25359.01534851  .00007064  00000+0  28853-3 0  9998",
        "tle_line2": "2 58647  97.3613  18.4304 0006650 213.6260 146.4557 15.24674115110941"
      },
      "geometry": {
        "type": "Point",
        "coordinates": [
          -12.037183746580567,
          75.80591973701627
        ]
      }
    },
    {
      "type": "Feature",
      "properties": {
        "norad_id": 58648,
        "name": "TIANMU-1 14",
        "group": "weather",
        "lat": 11.653558138858255,
        "lon": -160.43400032097432,
        "alt_km": 490.0600981216576,
        "timestamp": "2025-12-25T07:00:33.686618+00:00",
        "meta_object_name": "TIANMU-1 14",
        "meta_object_id": "2023-205D",
        "meta_epoch": "2025-12-24T23:58:23.568096",
        "meta_mean_motion": 15.24657284,
        "meta_eccentricity": 0.00073413,
        "meta_inclination": 97.3545,
        "meta_ra_of_asc_node": 17.7517,
        "meta_arg_of_pericenter": 219.8436,
        "meta_mean_anomaly": 140.2263,
        "meta_ephemeris_type": 0,
        "meta_classification_type": "U",
        "meta_norad_cat_id": 58648,
        "meta_element_set_no": 999,
        "meta_rev_at_epoch": 11094,
        "meta_bstar": 0.00029080909,
        "meta_mean_motion_dot": 7.118e-05,
        "meta_mean_motion_ddot": 0,
        "tle_line1": "1 58648U 23205D   25358.99888389  .00007118  00000+0  29081-3 0  9997",
        "tle_line2": "2 58648  97.3545  17.7517 0007341 219.8436 140.2263 15.24657284110949"
      },
      "geometry": {
        "type": "Point",
        "coordinates": [
          -160.43400032097432,
          11.653558138858255
        ]
      }
    },
    {
      "type": "Feature",
      "properties": {
        "norad_id": 58660,
        "name": "TIANMU-1 19",
        "group": "weather",
        "lat": -35.32812543402156,
        "lon": -75.00770272479605,
        "alt_km": 484.7641658314915,
        "timestamp": "2025-12-25T07:00:33.686628+00:00",
        "meta_object_name": "TIANMU-1 19",
        "meta_object_id": "2023-208A",
        "meta_epoch": "2025-12-24T22:12:38.547360",
        "meta_mean_motion": 15.28067588,
        "meta_eccentricity": 0.00047773,
        "meta_inclination": 97.439,
        "meta_ra_of_asc_node": 109.9401,
        "meta_arg_of_pericenter": 201.2718,
        "meta_mean_anomaly": 158.8323,
        "meta_ephemeris_type": 0,
        "meta_classification_type": "U",
        "meta_norad_cat_id": 58660,
        "meta_element_set_no": 999,
        "meta_rev_at_epoch": 11068,
        "meta_bstar": 0.0003869491,
        "meta_mean_motion_dot": 0.00010524,
        "meta_mean_motion_ddot": 0,
        "tle_line1": "1 58660U 23208A   25358.92544615  .00010524  00000+0  38695-3 0  9994",
        "tle_line2": "2 58660  97.4390 109.9401 0004777 201.2718 158.8323 15.28067588110685"
      },
      "geometry": {
        "type": "Point",
        "coordinates": [
          -75.00770272479605,
          -35.32812543402156
        ]
      }
    },
    {
      "type": "Feature",
      "properties": {
        "norad_id": 58661,
        "name": "TIANMU-1 20",
        "group": "weather",
        "lat": -16.424216041588394,
        "lon": 112.97130874009196,
        "alt_km": 485.92850375922444,
        "timestamp": "2025-12-25T07:00:33.686638+00:00",
        "meta_object_name": "TIANMU-1 20",
        "meta_object_id": "2023-208B",
        "meta_epoch": "2025-12-24T21:39:33.562656",
        "meta_mean_motion": 15.29257249,
        "meta_eccentricity": 0.00067943,
        "meta_inclination": 97.4327,
        "meta_ra_of_asc_node": 110.3766,
        "meta_arg_of_pericenter": 215.4932,
        "meta_mean_anomaly": 144.5857,
        "meta_ephemeris_type": 0,
        "meta_classification_type": "U",
        "meta_norad_cat_id": 58661,
        "meta_element_set_no": 999,
        "meta_rev_at_epoch": 11075,
        "meta_bstar": 0.00033456852,
        "meta_mean_motion_dot": 9.429e-05,
        "meta_mean_motion_ddot": 0,
        "tle_line1": "1 58661U 23208B   25358.90247179  .00009429  00000+0  33457-3 0  9991",
        "tle_line2": "2 58661  97.4327 110.3766 0006794 215.4932 144.5857 15.29257249110750"
      },
      "geometry": {
        "type": "Point",
        "coordinates": [
          112.97130874009196,
          -16.424216041588394
        ]
      }
    },
    {
      "type": "Feature",
      "properties": {
        "norad_id": 58662,
        "name": "TIANMU-1 21",
        "group": "weather",
        "lat": 75.62893020510644,
        "lon": -36.61372442416163,
        "alt_km": 464.48577103915704,
        "timestamp": "2025-12-25T07:00:33.686651+00:00",
        "meta_object_name": "TIANMU-1 21",
        "meta_object_id": "2023-208C",
        "meta_epoch": "2025-12-24T22:43:29.917920",
        "meta_mean_motion": 15.31807241,
        "meta_eccentricity": 0.00064557,
        "meta_inclination": 97.4377,
        "meta_ra_of_asc_node": 112.3845,
        "meta_arg_of_pericenter": 209.9011,
        "meta_mean_anomaly": 150.1862,
        "meta_ephemeris_type": 0,
        "meta_classification_type": "U",
        "meta_norad_cat_id": 58662,
        "meta_element_set_no": 999,
        "meta_rev_at_epoch": 11086,
        "meta_bstar": 0.00039278063,
        "meta_mean_motion_dot": 0.00011997,
        "meta_mean_motion_ddot": 0,
        "tle_line1": "1 58662U 23208C   25358.94687405  .00011997  00000+0  39278-3 0  9996",
        "tle_line2": "2 58662  97.4377 112.3845 0006455 209.9011 150.1862 15.31807241110863"
      },
      "geometry": {
        "type": "Point",
        "coordinates": [
          -36.61372442416163,
          75.62893020510644
        ]
      }
    },
    {
      "type": "Feature",
      "properties": {
        "norad_id": 58663,
        "name": "TIANMU-1 22",
        "group": "weather",
        "lat": -25.192759237683166,
        "lon": -73.16435430672722,
        "alt_km": 486.11894412057063,
        "timestamp": "2025-12-25T07:00:33.686661+00:00",
        "meta_object_name": "TIANMU-1 22",
        "meta_object_id": "2023-208D",
        "meta_epoch": "2025-12-24T22:15:13.974048",
        "meta_mean_motion": 15.27806011,
        "meta_eccentricity": 0.00029654,
        "meta_inclination": 97.4383,
        "meta_ra_of_asc_node": 109.9952,
        "meta_arg_of_pericenter": 224.5049,
        "meta_mean_anomaly": 135.5953,
        "meta_ephemeris_type": 0,
        "meta_classification_type": "U",
        "meta_norad_cat_id": 58663,
        "meta_element_set_no": 999,
        "meta_rev_at_epoch": 11069,
        "meta_bstar": 0.00036021373,
        "meta_mean_motion_dot": 9.711e-05,
        "meta_mean_motion_ddot": 0,
        "tle_line1": "1 58663U 23208D   25358.92724507  .00009711  00000+0  36021-3 0  9994",
        "tle_line2": "2 58663  97.4383 109.9952 0002965 224.5049 135.5953 15.27806011110696"
      },
      "geometry": {
        "type": "Point",
        "coordinates": [
          -73.16435430672722,
          -25.192759237683166
        ]
      }
    },
    {
      "type": "Feature",
      "properties": {
        "norad_id": 58700,
        "name": "TIANMU-1 15",
        "group": "weather",
        "lat": -9.753945478314462,
        "lon": -0.5767558054483323,
        "alt_km": 493.51032042995394,
        "timestamp": "2025-12-25T07:00:33.686672+00:00",
        "meta_object_name": "TIANMU-1 15",
        "meta_object_id": "2024-004A",
        "meta_epoch": "2025-12-24T23:52:42.244032",
        "meta_mean_motion": 15.24566409,
        "meta_eccentricity": 0.00060732,
        "meta_inclination": 97.4629,
        "meta_ra_of_asc_node": 180.4185,
        "meta_arg_of_pericenter": 238.0134,
        "meta_mean_anomaly": 122.0514,
        "meta_ephemeris_type": 0,
        "meta_classification_type": "U",
        "meta_norad_cat_id": 58700,
        "meta_element_set_no": 999,
        "meta_rev_at_epoch": 10921,
        "meta_bstar": 0.00032073919,
        "meta_mean_motion_dot": 7.834e-05,
        "meta_mean_motion_ddot": 0,
        "tle_line1": "1 58700U 24004A   25358.99493338  .00007834  00000+0  32074-3 0  9991",
        "tle_line2": "2 58700  97.4629 180.4185 0006073 238.0134 122.0514 15.24566409109213"
      },
      "geometry": {
        "type": "Point",
        "coordinates": [
          -0.5767558054483323,
          -9.753945478314462
        ]
      }
    }
  ]
}